start=new Date('2022-01-20T00:00:00.000Z').valueOf();
sats=[{"MEAN_MOTION_DOT":"0.00000027","REV_AT_EPOCH":"7869","OBJECT_ID":"2020-057AH","MEAN_ELEMENT_THEORY":"SGP4","CLASSIFICATION_TYPE":"U","LAUNCH_DATE":"2020-08-18","PERIOD":"95.593","CENTER_NAME":"EARTH","MEAN_MOTION_DDOT":"0.0000000000000","MEAN_ANOMALY":"289.6565","TLE_LINE1":"1 46148U 20057AH  22019.32222426  .00000027  00000-0  20742-4 0  9992","OBJECT_NAME":"STARLINK-1616","APOAPSIS":"548.762","NORAD_CAT_ID":"46148","DECAY_DATE":null,"MEAN_MOTION":"15.06393423","GP_ID":"194190215","RA_OF_ASC_NODE":"236.9090","BSTAR":"0.00002074200000","SEMIMAJOR_AXIS":"6925.369","EPHEMERIS_TYPE":"0","ECCENTRICITY":"0.00022070","COUNTRY_CODE":"US","INCLINATION":"53.0553","ARG_OF_PERICENTER":"70.4662","SITE":"AFETR","TLE_LINE2":"2 46148  53.0553 236.9090 0002207  70.4662 289.6565 15.06393423 78698","PERIAPSIS":"545.705","TIME_SYSTEM":"UTC","FILE":"3277432","EPOCH":"2022-01-19T07:44:00.176064","OBJECT_TYPE":"PAYLOAD","RCS_SIZE":"LARGE","ELEMENT_SET_NO":"999","REF_FRAME":"TEME"},{"MEAN_MOTION":"15.06376459","DECAY_DATE":null,"NORAD_CAT_ID":"46149","APOAPSIS":"549.090","OBJECT_NAME":"STARLINK-1620","TLE_LINE1":"1 46149U 20057AJ  22019.53601792 -.00000187  00000-0  63789-5 0  9990","MEAN_ANOMALY":"292.6711","MEAN_MOTION_DDOT":"0.0000000000000","PERIOD":"95.594","CENTER_NAME":"EARTH","CLASSIFICATION_TYPE":"U","LAUNCH_DATE":"2020-08-18","MEAN_ELEMENT_THEORY":"SGP4","OBJECT_ID":"2020-057AJ","REV_AT_EPOCH":"7939","MEAN_MOTION_DOT":"-0.00000187","REF_FRAME":"TEME","ELEMENT_SET_NO":"999","RCS_SIZE":"LARGE","OBJECT_TYPE":"PAYLOAD","EPOCH":"2022-01-19T12:51:51.948288","FILE":"3277643","TIME_SYSTEM":"UTC","SITE":"AFETR","TLE_LINE2":"2 46149  53.0543 235.9687 0002605  67.4553 292.6711 15.06376459 79391","PERIAPSIS":"545.482","ARG_OF_PERICENTER":"67.4553","INCLINATION":"53.0543","COUNTRY_CODE":"US","ECCENTRICITY":"0.00026050","EPHEMERIS_TYPE":"0","SEMIMAJOR_AXIS":"6925.421","BSTAR":"0.00000637890000","RA_OF_ASC_NODE":"235.9687","GP_ID":"194196895"},{"COUNTRY_CODE":"US","INCLINATION":"53.0526","ECCENTRICITY":"0.00019500","EPHEMERIS_TYPE":"0","RA_OF_ASC_NODE":"254.7902","GP_ID":"194198045","BSTAR":"0.00043202000000","SEMIMAJOR_AXIS":"6925.346","ELEMENT_SET_NO":"999","REF_FRAME":"TEME","EPOCH":"2022-01-19T19:06:01.969632","OBJECT_TYPE":"PAYLOAD","RCS_SIZE":"LARGE","TIME_SYSTEM":"UTC","FILE":"3277699","ARG_OF_PERICENTER":"63.7327","TLE_LINE2":"2 46150  53.0526 254.7902 0001950  63.7327 296.3862 15.06400805 79158","PERIAPSIS":"545.861","SITE":"AFETR","MEAN_MOTION_DOT":"0.00006159","REV_AT_EPOCH":"7915","OBJECT_ID":"2020-057AK","NORAD_CAT_ID":"46150","DECAY_DATE":null,"MEAN_MOTION":"15.06400805","MEAN_ANOMALY":"296.3862","TLE_LINE1":"1 46150U 20057AK  22019.79585613  .00006159  00000-0  43202-3 0  9993","OBJECT_NAME":"STARLINK-1629","APOAPSIS":"548.562","CENTER_NAME":"EARTH","PERIOD":"95.592","MEAN_MOTION_DDOT":"0.0000000000000","MEAN_ELEMENT_THEORY":"SGP4","CLASSIFICATION_TYPE":"U","LAUNCH_DATE":"2020-08-18"},{"LAUNCH_DATE":"2020-08-18","CLASSIFICATION_TYPE":"U","MEAN_ELEMENT_THEORY":"SGP4","MEAN_MOTION_DDOT":"0.0000000000000","CENTER_NAME":"EARTH","PERIOD":"95.593","APOAPSIS":"548.728","MEAN_ANOMALY":"287.1771","TLE_LINE1":"1 46151U 20057AL  22019.30747004  .00001188  00000-0  98668-4 0  9999","OBJECT_NAME":"STARLINK-1631","NORAD_CAT_ID":"46151","MEAN_MOTION":"15.06388186","DECAY_DATE":null,"MEAN_MOTION_DOT":"0.00001188","OBJECT_ID":"2020-057AL","REV_AT_EPOCH":"7869","PERIAPSIS":"545.772","TLE_LINE2":"2 46151  53.0534 236.9899 0002134  72.9452 287.1771 15.06388186 78693","SITE":"AFETR","ARG_OF_PERICENTER":"72.9452","TIME_SYSTEM":"UTC","FILE":"3277432","OBJECT_TYPE":"PAYLOAD","EPOCH":"2022-01-19T07:22:45.411456","RCS_SIZE":"LARGE","REF_FRAME":"TEME","ELEMENT_SET_NO":"999","RA_OF_ASC_NODE":"236.9899","GP_ID":"194191467","SEMIMAJOR_AXIS":"6925.385","BSTAR":"0.00009866800000","EPHEMERIS_TYPE":"0","ECCENTRICITY":"0.00021340","COUNTRY_CODE":"US","INCLINATION":"53.0534"},{"PERIOD":"95.593","CENTER_NAME":"EARTH","MEAN_MOTION_DDOT":"0.0000000000000","MEAN_ELEMENT_THEORY":"SGP4","CLASSIFICATION_TYPE":"U","LAUNCH_DATE":"2020-08-18","DECAY_DATE":null,"MEAN_MOTION":"15.06388120","NORAD_CAT_ID":"46152","MEAN_ANOMALY":"288.6530","TLE_LINE1":"1 46152U 20057AM  22019.02549126  .00000740  00000-0  68639-4 0  9992","OBJECT_NAME":"STARLINK-1634","APOAPSIS":"548.733","REV_AT_EPOCH":"7837","OBJECT_ID":"2020-057AM","MEAN_MOTION_DOT":"0.00000740","FILE":"3277432","TIME_SYSTEM":"UTC","ARG_OF_PERICENTER":"71.4691","SITE":"AFETR","TLE_LINE2":"2 46152  53.0548 258.2560 0002141  71.4691 288.6530 15.06388120 78370","PERIAPSIS":"545.767","ELEMENT_SET_NO":"999","REF_FRAME":"TEME","RCS_SIZE":"LARGE","EPOCH":"2022-01-19T00:36:42.444864","OBJECT_TYPE":"PAYLOAD","EPHEMERIS_TYPE":"0","BSTAR":"0.00006863900000","SEMIMAJOR_AXIS":"6925.385","RA_OF_ASC_NODE":"258.2560","GP_ID":"194189716","INCLINATION":"53.0548","COUNTRY_CODE":"US","ECCENTRICITY":"0.00021410"},{"CENTER_NAME":"EARTH","PERIOD":"95.593","MEAN_MOTION_DDOT":"0.0000000000000","MEAN_ELEMENT_THEORY":"SGP4","CLASSIFICATION_TYPE":"U","LAUNCH_DATE":"2020-08-18","NORAD_CAT_ID":"46153","DECAY_DATE":null,"MEAN_MOTION":"15.06389067","OBJECT_NAME":"STARLINK-1636","TLE_LINE1":"1 46153U 20057AN  22019.32590371 -.00000214  00000-0  45311-5 0  9994","MEAN_ANOMALY":"289.1736","APOAPSIS":"548.781","MEAN_MOTION_DOT":"-0.00000214","REV_AT_EPOCH":"7869","OBJECT_ID":"2020-057AN","TIME_SYSTEM":"UTC","FILE":"3277432","ARG_OF_PERICENTER":"70.9492","PERIAPSIS":"545.713","TLE_LINE2":"2 46153  53.0541 236.9135 0002215  70.9492 289.1736 15.06389067 78690","SITE":"AFETR","ELEMENT_SET_NO":"999","REF_FRAME":"TEME","EPOCH":"2022-01-19T07:49:18.080544","OBJECT_TYPE":"PAYLOAD","RCS_SIZE":"LARGE","EPHEMERIS_TYPE":"0","GP_ID":"194189966","RA_OF_ASC_NODE":"236.9135","BSTAR":"0.00000453110000","SEMIMAJOR_AXIS":"6925.382","COUNTRY_CODE":"US","INCLINATION":"53.0541","ECCENTRICITY":"0.00022150"},{"COUNTRY_CODE":"US","INCLINATION":"53.0544","ECCENTRICITY":"0.00021020","EPHEMERIS_TYPE":"0","GP_ID":"194191217","RA_OF_ASC_NODE":"246.8671","BSTAR":"0.00008987100000","SEMIMAJOR_AXIS":"6925.397","ELEMENT_SET_NO":"999","REF_FRAME":"TEME","EPOCH":"2022-01-19T08:03:54.037440","OBJECT_TYPE":"PAYLOAD","RCS_SIZE":"LARGE","TIME_SYSTEM":"UTC","FILE":"3277432","ARG_OF_PERICENTER":"70.1407","TLE_LINE2":"2 46154  53.0544 246.8671 0002102  70.1407 289.9809 15.06384247 78562","SITE":"AFETR","PERIAPSIS":"545.806","MEAN_MOTION_DOT":"0.00001057","REV_AT_EPOCH":"7856","OBJECT_ID":"2020-057AP","NORAD_CAT_ID":"46154","DECAY_DATE":null,"MEAN_MOTION":"15.06384247","MEAN_ANOMALY":"289.9809","TLE_LINE1":"1 46154U 20057AP  22019.33604210  .00001057  00000-0  89871-4 0  9997","OBJECT_NAME":"STARLINK-1642","APOAPSIS":"548.718","PERIOD":"95.593","CENTER_NAME":"EARTH","MEAN_MOTION_DDOT":"0.0000000000000","MEAN_ELEMENT_THEORY":"SGP4","CLASSIFICATION_TYPE":"U","LAUNCH_DATE":"2020-08-18"},{"MEAN_MOTION_DOT":"0.00001402","OBJECT_ID":"2020-057AQ","REV_AT_EPOCH":"8024","LAUNCH_DATE":"2020-08-18","CLASSIFICATION_TYPE":"U","MEAN_ELEMENT_THEORY":"SGP4","MEAN_MOTION_DDOT":"0.0000000000000","PERIOD":"95.593","CENTER_NAME":"EARTH","APOAPSIS":"548.894","MEAN_ANOMALY":"285.0188","TLE_LINE1":"1 46155U 20057AQ  22019.49361244  .00001402  00000-0  11302-3 0  9999","OBJECT_NAME":"STARLINK-1667","NORAD_CAT_ID":"46155","MEAN_MOTION":"15.06391597","DECAY_DATE":null,"RA_OF_ASC_NODE":"216.1466","GP_ID":"194190968","SEMIMAJOR_AXIS":"6925.374","BSTAR":"0.00011302000000","EPHEMERIS_TYPE":"0","ECCENTRICITY":"0.00023900","COUNTRY_CODE":"US","INCLINATION":"53.0526","PERIAPSIS":"545.584","TLE_LINE2":"2 46155  53.0526 216.1466 0002390  75.1065 285.0188 15.06391597 80240","SITE":"AFETR","ARG_OF_PERICENTER":"75.1065","TIME_SYSTEM":"UTC","FILE":"3277432","OBJECT_TYPE":"PAYLOAD","EPOCH":"2022-01-19T11:50:48.114816","RCS_SIZE":"LARGE","REF_FRAME":"TEME","ELEMENT_SET_NO":"999"},{"MEAN_ELEMENT_THEORY":"SGP4","CLASSIFICATION_TYPE":"U","LAUNCH_DATE":"2020-08-18","PERIOD":"95.593","CENTER_NAME":"EARTH","MEAN_MOTION_DDOT":"0.0000000000000","TLE_LINE1":"1 46156U 20057AR  22019.88248882  .00001378  00000-0  11147-3 0  9994","MEAN_ANOMALY":"291.6993","OBJECT_NAME":"STARLINK-1545","APOAPSIS":"548.759","NORAD_CAT_ID":"46156","DECAY_DATE":null,"MEAN_MOTION":"15.06380592","MEAN_MOTION_DOT":"0.00001378","REV_AT_EPOCH":"7945","OBJECT_ID":"2020-057AR","ARG_OF_PERICENTER":"68.4225","PERIAPSIS":"545.788","TLE_LINE2":"2 46156  53.0527 234.4023 0002145  68.4225 291.6993 15.06380592 79456","SITE":"AFETR","TIME_SYSTEM":"UTC","FILE":"3277872","EPOCH":"2022-01-19T21:10:47.034048","OBJECT_TYPE":"PAYLOAD","RCS_SIZE":"LARGE","ELEMENT_SET_NO":"999","REF_FRAME":"TEME","GP_ID":"194200606","RA_OF_ASC_NODE":"234.4023","BSTAR":"0.00011147000000","SEMIMAJOR_AXIS":"6925.408","EPHEMERIS_TYPE":"0","ECCENTRICITY":"0.00021450","COUNTRY_CODE":"US","INCLINATION":"53.0527"},{"OBJECT_ID":"2020-057AS","REV_AT_EPOCH":"7901","MEAN_MOTION_DOT":"-0.00000438","MEAN_MOTION_DDOT":"0.0000000000000","PERIOD":"95.593","CENTER_NAME":"EARTH","LAUNCH_DATE":"2020-08-18","CLASSIFICATION_TYPE":"U","MEAN_ELEMENT_THEORY":"SGP4","MEAN_MOTION":"15.06387145","DECAY_DATE":null,"NORAD_CAT_ID":"46157","APOAPSIS":"548.849","MEAN_ANOMALY":"286.7225","TLE_LINE1":"1 46157U 20057AS  22019.53785719 -.00000438  00000-0 -10476-4 0  9995","OBJECT_NAME":"STARLINK-1587","EPHEMERIS_TYPE":"0","SEMIMAJOR_AXIS":"6925.388","BSTAR":"-0.00001047600000","RA_OF_ASC_NODE":"215.9492","GP_ID":"194190466","INCLINATION":"53.0544","COUNTRY_CODE":"US","ECCENTRICITY":"0.00023050","FILE":"3277432","TIME_SYSTEM":"UTC","TLE_LINE2":"2 46157  53.0544 215.9492 0002305  73.4017 286.7225 15.06387145 79019","PERIAPSIS":"545.657","SITE":"AFETR","ARG_OF_PERICENTER":"73.4017","REF_FRAME":"TEME","ELEMENT_SET_NO":"999","RCS_SIZE":"LARGE","OBJECT_TYPE":"PAYLOAD","EPOCH":"2022-01-19T12:54:30.861216"}];
